STARLINK-31422          
1 59354U 24060G   26068.52856907  .00000220  00000+0  17517-4 0  9990
2 59354  43.0044 261.1618 0001656 266.9669  93.0993 15.27570701110033
TRANSPORTER-12 OBJECT BT
1 62674U 25009BT  26068.71416991  .00013824  00000+0  51029-3 0  9998
2 62674  97.4094 151.5992 0003682 313.5044  46.5889 15.27872239121360
